{
  "type": "FeatureCollection",
  "features": [
    {
      "type": "Feature",
      "properties": {
        "norad_id": 66635,
        "name": "STARLINK-35955",
        "group": "last-30-days",
        "lat": -38.146036354383064,
        "lon": 173.32790673993938,
        "alt_km": 364.06954106359626,
        "timestamp": "2025-12-08T03:50:05.784857+00:00",
        "meta_object_name": "STARLINK-35955",
        "meta_object_id": "2025-271U",
        "meta_epoch": "2025-12-07T06:00:04.999968",
        "meta_mean_motion": 15.73605465,
        "meta_eccentricity": 0.00010405,
        "meta_inclination": 53.1577,
        "meta_ra_of_asc_node": 213.9046,
        "meta_arg_of_pericenter": 90.4189,
        "meta_mean_anomaly": 108.785,
        "meta_ephemeris_type": 0,
        "meta_classification_type": "U",
        "meta_norad_cat_id": 66635,
        "meta_element_set_no": 999,
        "meta_rev_at_epoch": 336,
        "meta_bstar": -0.01552022,
        "meta_mean_motion_dot": -0.01923278,
        "meta_mean_motion_ddot": 0,
        "tle_line1": "1 66635U 25271U   25341.25005787 -.01923278  00000+0 -15520-1 0  9999",
        "tle_line2": "2 66635  53.1577 213.9046 0001040  90.4189 108.7850 15.73605465  3360"
      },
      "geometry": {
        "type": "Point",
        "coordinates": [
          173.32790673993938,
          -38.146036354383064
        ]
      }
    },
    {
      "type": "Feature",
      "properties": {
        "norad_id": 66636,
        "name": "STARLINK-35968",
        "group": "last-30-days",
        "lat": -36.890304518916146,
        "lon": 175.1548614255896,
        "alt_km": 363.7205929927859,
        "timestamp": "2025-12-08T03:50:05.784867+00:00",
        "meta_object_name": "STARLINK-35968",
        "meta_object_id": "2025-271V",
        "meta_epoch": "2025-12-07T06:00:04.999968",
        "meta_mean_motion": 15.73604176,
        "meta_eccentricity": 9.237e-05,
        "meta_inclination": 53.1577,
        "meta_ra_of_asc_node": 213.9006,
        "meta_arg_of_pericenter": 68.066,
        "meta_mean_anomaly": 133.0518,
        "meta_ephemeris_type": 0,
        "meta_classification_type": "U",
        "meta_norad_cat_id": 66636,
        "meta_element_set_no": 999,
        "meta_rev_at_epoch": 336,
        "meta_bstar": -0.015482208,
        "meta_mean_motion_dot": -0.0191902,
        "meta_mean_motion_ddot": 0,
        "tle_line1": "1 66636U 25271V   25341.25005787 -.01919020  00000+0 -15482-1 0  9997",
        "tle_line2": "2 66636  53.1577 213.9006 0000923  68.0660 133.0518 15.73604176  3361"
      },
      "geometry": {
        "type": "Point",
        "coordinates": [
          175.1548614255896,
          -36.890304518916146
        ]
      }
    },
    {
      "type": "Feature",
      "properties": {
        "norad_id": 66637,
        "name": "STARLINK-35953",
        "group": "last-30-days",
        "lat": -35.60817146742484,
        "lon": 176.92075876632978,
        "alt_km": 363.8723463481638,
        "timestamp": "2025-12-08T03:50:05.784877+00:00",
        "meta_object_name": "STARLINK-35953",
        "meta_object_id": "2025-271W",
        "meta_epoch": "2025-12-07T06:00:04.999968",
        "meta_mean_motion": 15.73604558,
        "meta_eccentricity": 0.00010098,
        "meta_inclination": 53.1576,
        "meta_ra_of_asc_node": 213.8966,
        "meta_arg_of_pericenter": 91.7866,
        "meta_mean_anomaly": 111.2482,
        "meta_ephemeris_type": 0,
        "meta_classification_type": "U",
        "meta_norad_cat_id": 66637,
        "meta_element_set_no": 999,
        "meta_rev_at_epoch": 336,
        "meta_bstar": -0.015479283,
        "meta_mean_motion_dot": -0.01918809,
        "meta_mean_motion_ddot": 0,
        "tle_line1": "1 66637U 25271W   25341.25005787 -.01918809  00000+0 -15479-1 0  9998",
        "tle_line2": "2 66637  53.1576 213.8966 0001009  91.7866 111.2482 15.73604558  3364"
      },
      "geometry": {
        "type": "Point",
        "coordinates": [
          176.92075876632978,
          -35.60817146742484
        ]
      }
    },
    {
      "type": "Feature",
      "properties": {
        "norad_id": 66638,
        "name": "STARLINK-35972",
        "group": "last-30-days",
        "lat": -34.31080020999941,
        "lon": 178.61805804011343,
        "alt_km": 363.5223067156503,
        "timestamp": "2025-12-08T03:50:05.784888+00:00",
        "meta_object_name": "STARLINK-35972",
        "meta_object_id": "2025-271X",
        "meta_epoch": "2025-12-07T06:00:04.999968",
        "meta_mean_motion": 15.73611448,
        "meta_eccentricity": 6.53e-05,
        "meta_inclination": 53.1575,
        "meta_ra_of_asc_node": 213.8929,
        "meta_arg_of_pericenter": 73.9478,
        "meta_mean_anomaly": 130.9983,
        "meta_ephemeris_type": 0,
        "meta_classification_type": "U",
        "meta_norad_cat_id": 66638,
        "meta_element_set_no": 999,
        "meta_rev_at_epoch": 336,
        "meta_bstar": -0.015549441,
        "meta_mean_motion_dot": -0.01926498,
        "meta_mean_motion_ddot": 0,
        "tle_line1": "1 66638U 25271X   25341.25005787 -.01926498  00000+0 -15549-1 0  9990",
        "tle_line2": "2 66638  53.1575 213.8929 0000653  73.9478 130.9983 15.73611448  3368"
      },
      "geometry": {
        "type": "Point",
        "coordinates": [
          178.61805804011343,
          -34.31080020999941
        ]
      }
    },
    {
      "type": "Feature",
      "properties": {
        "norad_id": 66639,
        "name": "STARLINK-35908",
        "group": "last-30-days",
        "lat": -32.99483735538291,
        "lon": -179.74204904888606,
        "alt_km": 363.71959563733435,
        "timestamp": "2025-12-08T03:50:05.784897+00:00",
        "meta_object_name": "STARLINK-35908",
        "meta_object_id": "2025-271Y",
        "meta_epoch": "2025-12-07T06:00:04.999968",
        "meta_mean_motion": 15.73611434,
        "meta_eccentricity": 0.00010701,
        "meta_inclination": 53.1578,
        "meta_ra_of_asc_node": 213.8886,
        "meta_arg_of_pericenter": 78.0773,
        "meta_mean_anomaly": 128.7915,
        "meta_ephemeris_type": 0,
        "meta_classification_type": "U",
        "meta_norad_cat_id": 66639,
        "meta_element_set_no": 999,
        "meta_rev_at_epoch": 336,
        "meta_bstar": -0.015595615,
        "meta_mean_motion_dot": -0.01971949,
        "meta_mean_motion_ddot": 0,
        "tle_line1": "1 66639U 25271Y   25341.25005787 -.01971949  00000+0 -15596-1 0  9994",
        "tle_line2": "2 66639  53.1578 213.8886 0001070  78.0773 128.7915 15.73611434  3367"
      },
      "geometry": {
        "type": "Point",
        "coordinates": [
          -179.74204904888606,
          -32.99483735538291
        ]
      }
    },
    {
      "type": "Feature",
      "properties": {
        "norad_id": 66640,
        "name": "STARLINK-35921",
        "group": "last-30-days",
        "lat": -31.638643000093705,
        "lon": -178.12817546254223,
        "alt_km": 363.50683237121484,
        "timestamp": "2025-12-08T03:50:05.784907+00:00",
        "meta_object_name": "STARLINK-35921",
        "meta_object_id": "2025-271Z",
        "meta_epoch": "2025-12-07T06:00:04.999968",
        "meta_mean_motion": 15.73606795,
        "meta_eccentricity": 8.769e-05,
        "meta_inclination": 53.1577,
        "meta_ra_of_asc_node": 213.885,
        "meta_arg_of_pericenter": 84.7834,
        "meta_mean_anomaly": 124.0031,
        "meta_ephemeris_type": 0,
        "meta_classification_type": "U",
        "meta_norad_cat_id": 66640,
        "meta_element_set_no": 999,
        "meta_rev_at_epoch": 336,
        "meta_bstar": -0.01553798,
        "meta_mean_motion_dot": -0.01925129,
        "meta_mean_motion_ddot": 0,
        "tle_line1": "1 66640U 25271Z   25341.25005787 -.01925129  00000+0 -15538-1 0  9991",
        "tle_line2": "2 66640  53.1577 213.8850 0000876  84.7834 124.0031 15.73606795  3366"
      },
      "geometry": {
        "type": "Point",
        "coordinates": [
          -178.12817546254223,
          -31.638643000093705
        ]
      }
    },
    {
      "type": "Feature",
      "properties": {
        "norad_id": 66641,
        "name": "STARLINK-35923",
        "group": "last-30-days",
        "lat": -26.063922099426414,
        "lon": -172.1450203628088,
        "alt_km": 363.19955894842315,
        "timestamp": "2025-12-08T03:50:05.784917+00:00",
        "meta_object_name": "STARLINK-35923",
        "meta_object_id": "2025-271AA",
        "meta_epoch": "2025-12-07T06:00:04.999968",
        "meta_mean_motion": 15.73604243,
        "meta_eccentricity": 9.503e-05,
        "meta_inclination": 53.1575,
        "meta_ra_of_asc_node": 213.8682,
        "meta_arg_of_pericenter": 96.2512,
        "meta_mean_anomaly": 120.2059,
        "meta_ephemeris_type": 0,
        "meta_classification_type": "U",
        "meta_norad_cat_id": 66641,
        "meta_element_set_no": 999,
        "meta_rev_at_epoch": 336,
        "meta_bstar": -0.015528568,
        "meta_mean_motion_dot": -0.01924003,
        "meta_mean_motion_ddot": 0,
        "tle_line1": "1 66641U 25271AA  25341.25005787 -.01924003  00000+0 -15529-1 0  9992",
        "tle_line2": "2 66641  53.1575 213.8682 0000950  96.2512 120.2059 15.73604243  3366"
      },
      "geometry": {
        "type": "Point",
        "coordinates": [
          -172.1450203628088,
          -26.063922099426414
        ]
      }
    }
  ]
}